{
   "features" : [
      {
         "geometry" : {
            "coordinates" : [
               [
                  [
                     112.749889452792,
                     -7.29932277622024
                  ],
                  [
                     112.749576053968,
                     -7.29915994527424
                  ],
                  [
                     112.748441848698,
                     -7.30249056647088
                  ],
                  [
                     112.754769520198,
                     -7.30417807174203
                  ],
                  [
                     112.755575402888,
                     -7.30080305483074
                  ],
                  [
                     112.751754921983,
                     -7.30016653562862
                  ],
                  [
                     112.751814616997,
                     -7.29958922673194
                  ],
                  [
                     112.749889452792,
                     -7.29932277622024
                  ]
               ]
            ],
            "type" : "Polygon"
         },
         "properties" : {"neighborhood": "my_hood"},
         "type" : "Feature"
      }
   ],
   "type" : "FeatureCollection"
}
